OBJECT_NAME,OBJECT_ID,EPOCH,MEAN_MOTION,ECCENTRICITY,INCLINATION,RA_OF_ASC_NODE,ARG_OF_PERICENTER,MEAN_ANOMALY,EPHEMERIS_TYPE,CLASSIFICATION_TYPE,NORAD_CAT_ID,ELEMENT_SET_NO,REV_AT_EPOCH,BSTAR,MEAN_MOTION_DOT,MEAN_MOTION_DDOT
STARLINK-31739,2024-091P,2026-06-28T12:21:31.975488,15.30192580,.00011385,53.1601,229.1832,95.0967,265.0163,0,U,59766,999,12001,.14854176E-4,.81E-6,0
STARLINK-31828,2024-091Q,2026-06-28T11:13:15.941568,15.31703360,.00009851,53.1586,231.7217,84.4634,275.6480,0,U,59767,999,11997,.48758153E-4,.1148E-4,0
STARLINK-31826,2024-091R,2026-06-28T10:25:32.320704,15.47943828,.00088109,53.1507,226.5148,330.1062,29.9442,0,U,59768,999,12004,.2262396E-2,.121548E-2,0
STARLINK-31830,2024-091S,2026-06-28T12:52:51.204864,15.30182361,.00011201,53.1591,232.1517,83.0361,277.0767,0,U,59769,999,11997,-.4070501E-4,-.1564E-4,0
STARLINK-31829,2024-091T,2026-06-28T12:39:10.308960,15.30190576,.00011332,53.1594,232.0940,90.3811,269.7319,0,U,59770,999,11997,.37378297E-4,.748E-5,0
STARLINK-31786,2024-091U,2026-06-28T09:50:48.984288,15.30188852,.00009843,53.1592,232.7825,88.6672,271.4441,0,U,59771,999,11995,.19558092E-4,.22E-5,0
STARLINK-31835,2024-091V,2026-06-28T12:40:30.117504,15.31708709,.00009026,53.1582,231.3874,74.4708,285.6393,0,U,59772,999,11998,-.35172501E-4,-.1456E-4,0
STARLINK-31363,2024-093A,2026-06-28T01:45:12.633696,15.27581066,.0002114,43.0035,302.3100,278.6837,81.3775,0,U,59782,999,11961,.27528998E-4,.495E-5,0
STARLINK-31868,2024-093B,2026-06-28T14:20:18.735648,15.27575083,.00014824,43.0035,299.3274,276.4519,83.6163,0,U,59783,999,11969,.9871137E-5,.9E-7,0
STARLINK-31848,2024-093C,2026-06-28T01:10:04.174752,15.27555091,.00005214,43.0033,302.1688,298.5616,61.5183,0,U,59784,999,11961,.18307561E-3,.4775E-4,0
STARLINK-31890,2024-093D,2026-06-28T15:23:01.904928,15.27506707,.00014133,43.0041,298.8751,300.6820,59.3892,0,U,59785,999,11970,.50190552E-3,.13544E-3,0
STARLINK-31862,2024-093E,2026-06-28T14:43:28.211808,15.27579420,.00016067,43.0045,302.1281,279.9517,80.1154,0,U,59786,999,11966,.81862577E-4,.1991E-4,0
STARLINK-31870,2024-093F,2026-06-28T14:37:55.034400,15.27582754,.00016789,43.0028,302.0987,276.0627,84.0033,0,U,59787,999,11966,.7826027E-4,.1892E-4,0
STARLINK-31888,2024-093G,2026-06-28T14:52:43.082976,15.27576472,.00009609,42.9992,302.1771,260.1067,99.9677,0,U,59788,999,11966,-.47472806E-4,-.1568E-4,0
STARLINK-31863,2024-093H,2026-06-28T14:49:01.767648,15.27608463,.00017627,43.0036,302.1584,258.1801,101.8854,0,U,59789,999,11966,-.31366822E-3,-.8891E-4,0
STARLINK-31873,2024-093J,2026-06-28T15:03:48.930624,15.27602518,.00010951,43.0028,302.2351,270.7872,89.2855,0,U,59790,999,11966,-.54552712E-4,-.1764E-4,0
STARLINK-31865,2024-093K,2026-06-28T15:09:22.374144,15.27575712,.00016964,43.0035,302.2611,268.5139,91.5519,0,U,59791,999,11966,.38114642E-4,.787E-5,0
STARLINK-31823,2024-093N,2026-06-28T15:14:55.274208,15.27585977,.00012753,43.0091,302.2868,290.0744,69.9970,0,U,59794,999,11966,.63172627E-4,.1477E-4,0
STARLINK-31916,2024-093P,2026-06-28T01:13:03.975744,15.27572193,.00010503,43.0052,305.6387,288.2333,71.8405,0,U,59795,999,11957,.49339073E-4,.1096E-4,0
STARLINK-31907,2024-093R,2026-06-28T15:24:10.459008,15.27577631,.00013019,43.0024,302.3353,275.0737,84.9966,0,U,59797,999,11966,.66884453E-4,.1579E-4,0
STARLINK-31687,2024-093S,2026-06-27T19:37:07.396608,15.27584736,.00029699,43.0081,307.3306,274.7184,85.3328,0,U,59798,999,11953,.37865298E-4,.779E-5,0
STARLINK-31810,2024-093T,2026-06-28T15:40:49.960128,15.27574734,.00005306,43.0052,302.4212,281.5583,78.5209,0,U,59799,999,11966,.47770979E-4,.1053E-4,0
STARLINK-31812,2024-093U,2026-06-28T15:29:43.504224,15.27573546,.00002155,42.9998,302.3633,194.6073,165.4773,0,U,59800,999,11973,.71477245E-4,.1705E-4,0
STARLINK-31815,2024-093V,2026-06-28T15:35:16.469952,15.27565355,.00017005,43.0030,302.3956,275.0559,85.0099,0,U,59801,999,11966,.94100831E-4,.2327E-4,0
STARLINK-31814,2024-093W,2026-06-28T01:59:18.410208,15.27592419,.00014589,43.0043,305.8668,280.5192,79.5495,0,U,59802,999,11957,.1500429E-5,-.221E-5,0
STARLINK-31794,2024-093X,2026-06-28T01:44:30.755616,15.27586386,.00011716,43.0061,305.8028,282.3927,77.6793,0,U,59803,999,11964,-.14865368E-4,-.671E-5,0
STARLINK-31824,2024-093Y,2026-06-28T01:38:58.132896,15.27572696,.00026241,43.0058,305.7744,264.5449,95.5103,0,U,59804,999,11957,.32805243E-3,.8774E-4,0
STARLINK-31947,2024-097A,2026-06-28T05:17:52.480320,15.27607619,.00012895,43.0025,9.9278,265.9304,94.1401,0,U,59835,999,11882,-.19898324E-3,-.5738E-4,0
STARLINK-31929,2024-097B,2026-06-28T14:06:02.580768,15.27567945,.00009648,43.0042,8.3732,249.8497,110.2251,0,U,59836,999,11887,.74570529E-4,.179E-4,0
STARLINK-31927,2024-097C,2026-06-27T21:52:59.877696,15.27587814,.0001365,43.0041,11.9035,264.6687,95.4009,0,U,59837,999,11877,.38714E-4,.804E-5,0
STARLINK-31855,2024-097D,2026-06-28T13:03:07.194528,15.27588219,.00008361,42.9975,8.0372,273.5594,86.5162,0,U,59838,999,11887,.32914873E-3,.8809E-4,0
STARLINK-31887,2024-097E,2026-06-27T22:30:01.828224,15.27564267,.00010717,43.0034,12.0905,274.2533,85.8196,0,U,59839,999,11877,-.84055E-7,-.264E-5,0
STARLINK-31852,2024-097G,2026-06-27T21:57:52.867872,15.27587361,.00013952,43.0028,4.1376,268.3959,91.6733,0,U,59841,999,11886,.13071439E-3,.3337E-4,0
STARLINK-31906,2024-097H,2026-06-28T12:11:32.089920,15.27564866,.00010787,43.0030,8.6366,273.2585,86.8143,0,U,59842,999,11886,.83407983E-4,.2033E-4,0
STARLINK-31857,2024-097J,2026-06-28T14:28:01.677216,15.27576244,.0001571,43.0013,7.6206,264.3982,95.6691,0,U,59843,999,11888,.44629868E-4,.966E-5,0
STARLINK-31851,2024-097K,2026-06-28T05:23:26.448288,15.27570289,.00008312,43.0051,9.9519,266.8115,93.2642,0,U,59844,999,11882,.1004411E-3,.2502E-4,0
STARLINK-31903,2024-097L,2026-06-28T05:34:05.563776,15.27577848,.00011612,43.0041,3.0803,271.5374,88.5345,0,U,59845,999,11890,.57148579E-4,.1311E-4,0
STARLINK-31922,2024-097M,2026-06-28T12:59:25.468800,15.27568541,.00007663,43.0011,8.0207,272.8868,87.1896,0,U,59846,999,11887,.49701549E-4,.1106E-4,0
STARLINK-31889,2024-097N,2026-06-28T14:18:59.931936,15.27587442,.00010939,43.0020,8.4374,254.2847,105.7884,0,U,59847,999,11887,-.38262195E-4,-.1315E-4,0
STARLINK-31859,2024-097P,2026-06-28T11:59:58.634880,15.27563087,.0001118,43.0052,1.6500,278.7711,81.3014,0,U,59848,999,11894,.74478253E-4,.1787E-4,0
STARLINK-31895,2024-097Q,2026-06-28T05:28:59.471904,15.27591842,.00012992,43.0016,9.9789,275.8042,84.2661,0,U,59849,999,11882,.39840066E-3,.10721E-3,0
STARLINK-31899,2024-097R,2026-06-28T05:34:34.665888,15.27550776,.00012823,43.0046,10.0086,267.7689,92.3016,0,U,59850,999,11882,-.16426744E-4,-.714E-5,0
STARLINK-31896,2024-097S,2026-06-28T13:30:59.252256,15.27471406,.00018646,43.0059,8.1883,214.1198,145.9534,0,U,59851,999,11887,-.2763459E-3,-.7834E-4,0
STARLINK-31892,2024-097U,2026-06-28T12:22:37.752672,15.27569013,.00009117,43.0052,8.6951,279.7569,80.3180,0,U,59853,999,11886,.91428231E-4,.2254E-4,0
STARLINK-31891,2024-097V,2026-06-28T14:02:20.475744,15.27572990,.00011822,43.0039,8.3515,258.9383,101.1336,0,U,59854,999,11887,.20732837E-4,.308E-5,0
STARLINK-31882,2024-097W,2026-06-28T11:54:24.787872,15.27580817,.00011409,43.0036,1.6104,252.7150,107.3577,0,U,59855,999,11894,.48853266E-4,.1082E-4,0
STARLINK-31691,2024-097X,2026-06-28T12:48:19.563264,15.27570961,.00014329,43.0024,7.9577,269.4491,90.6196,0,U,59856,999,11887,.4109698E-4,.869E-5,0
STARLINK-31569,2024-097Y,2026-06-28T12:05:58.848576,15.27555143,.00016734,43.0047,8.6048,266.0854,93.9806,0,U,59857,999,11886,.84508453E-4,.2062E-4,0
STARLINK-31654,2024-098A,2026-06-28T12:43:29.859744,15.27570943,.00014226,43.0009,4.6037,275.8569,84.2120,0,U,59858,999,11887,.67570031E-4,.1597E-4,0
STARLINK-31442,2024-098B,2026-06-28T14:28:43.102560,15.27572594,.0001728,43.0026,15.5134,257.5619,102.5040,0,U,59859,999,11876,.69454498E-4,.1649E-4,0
STARLINK-31651,2024-098C,2026-06-27T21:56:02.338080,15.27572207,.0001538,43.0023,15.4995,263.3662,96.7015,0,U,59860,999,11870,.12567E-3,.3197E-4,0
STARLINK-31584,2024-098E,2026-06-28T13:22:48.782784,15.27568177,.00010815,42.9972,11.7317,279.9995,80.0735,0,U,59862,999,11880,.74433755E-4,.1786E-4,0
STARLINK-31950,2024-098F,2026-06-27T22:07:09.573312,15.27566723,.0001618,43.0058,15.5555,272.7413,87.3253,0,U,59863,999,11870,-.65478E-4,-.2063E-4,0
STARLINK-31931,2024-098G,2026-06-28T14:14:37.307040,15.27572565,.0001009,43.0039,11.9978,250.5579,109.5164,0,U,59864,999,11880,.45953094E-4,.1002E-4,0
STARLINK-31938,2024-098H,2026-06-27T21:26:26.208096,15.27579889,.0001126,43.0018,15.3373,270.8169,89.2553,0,U,59865,999,11870,.34436E-4,.686E-5,0
STARLINK-31941,2024-098J,2026-06-28T11:55:45.204672,15.27572041,.00010313,43.0001,354.4683,277.9866,82.0868,0,U,59866,999,11899,.92300044E-4,.2278E-4,0
STARLINK-31952,2024-098K,2026-06-28T06:03:28.675008,15.27574425,.00010657,43.0043,13.7408,291.7180,68.3558,0,U,59867,999,11875,.80513635E-4,.1954E-4,0
STARLINK-31921,2024-098L,2026-06-28T03:24:23.117472,15.27564520,.00011816,43.0038,333.8674,271.4928,88.5788,0,U,59868,999,11919,.37168567E-4,.76E-5,0
STARLINK-31760,2024-098M,2026-06-28T12:34:54.348960,15.27584955,.00014852,43.0032,12.3381,277.9579,82.1104,0,U,59869,999,11879,.22142908E-3,.5837E-4,0
STARLINK-31945,2024-098N,2026-06-28T14:07:42.163680,15.27578621,.00014094,43.0042,7.6335,253.2437,106.8260,0,U,59870,999,11885,-.3587212E-5,-.361E-5,0
STARLINK-31937,2024-098P,2026-06-28T12:01:09.156288,15.27574973,.00009295,43.0022,5.2406,274.0319,86.0427,0,U,59871,999,11887,.71011635E-4,.1692E-4,0
STARLINK-31940,2024-098R,2026-06-28T13:57:17.965152,15.27573666,.00013471,43.0044,4.1202,262.0981,97.9718,0,U,59873,999,11889,.38423919E-4,.795E-5,0
STARLINK-31933,2024-098S,2026-06-28T05:41:16.399968,15.27576894,.00003351,43.0010,13.6236,231.0369,129.0453,0,U,59874,999,11875,.12154134E-3,.3084E-4,0
STARLINK-31936,2024-098T,2026-06-28T11:58:20.725536,15.27575823,.00015576,43.0043,339.8746,277.6951,82.3724,0,U,59875,999,11915,.51038106E-4,.1142E-4,0
